{"type":"FeatureCollection","features":[{"type":"Feature","properties":{"id":"manu","codigo":"PN03","nombre":"Parque Nacional del Manu","categoria":"Parque Nacional","departamentos":["Madre de Dios","Cusco"],"total_ha":1716295.22,"mdd_ha":1578763.6},"geometry":{"type":"Polygon","coordinates":[[[-72.217384,-11.346131],[-72.19371,-11.355497],[-72.1857,-11.352612],[-72.182968,-11.328729],[-72.157623,-11.321153],[-72.137207,-11.329778],[-72.103859,-11.332939],[-72.102936,-11.343327],[-72.112083,-11.351918],[-72.112785,-11.365621],[-72.090912,-11.381999],[-72.07402,-11.37496],[-72.05188,-11.373005],[-72.036491,-11.381266],[-72.022148,-11.369916],[-71.991074,-11.380729],[-71.98951,-11.390401],[-71.972267,-11.39109],[-71.93148,-11.378944],[-71.917923,-11.358565],[-71.903976,-11.350998],[-71.888451,-11.35621],[-71.87681,-11.366065],[-71.853157,-11.370104],[-71.84671,-11.367736],[-71.84359,-11.349248],[-71.832748,-11.343092],[-71.831795,-11.331655],[-71.826401,-11.328401],[-71.828239,-11.315944],[-71.805885,-11.324043],[-71.788742,-11.316112],[-71.779419,-11.320499],[-71.773056,-11.334137],[-71.761658,-11.342601],[-71.755898,-11.341824],[-71.749321,-11.330402],[-71.736229,-11.342458],[-71.721474,-11.33852],[-71.699638,-11.354441],[-71.697502,-11.370234],[-71.691879,-11.375941],[-71.682686,-11.374282],[-71.667595,-11.352293],[-71.660706,-11.349636],[-71.658585,-11.36524],[-71.646713,-11.382893],[-71.664909,-11.408504],[-71.648018,-11.426482],[-71.626907,-11.423194],[-71.615906,-11.432689],[-71.608902,-11.428695],[-71.587776,-11.430852],[-71.582932,-11.437842],[-71.579918,-11.46961],[-71.570763,-11.470287],[-71.556076,-11.487123],[-71.527329,-11.48094],[-71.509895,-11.487244],[-71.49823,-11.486838],[-71.477219,-11.508035],[-71.46093,-11.515266],[-71.44088,-11.502342],[-71.421646,-11.51012],[-71.419258,-11.530733],[-71.400406,-11.55302],[-71.408554,-11.567419],[-71.408577,-11.57819],[-71.387428,-11.576883],[-71.369545,-11.595465],[-71.373085,-11.605954],[-71.352501,-11.620997],[-71.364327,-11.661131],[-71.363342,-11.69662],[-71.349625,-11.70895],[-71.33007,-11.706462],[-71.321037,-11.701077],[-71.29882,-11.705856],[-71.297836,-11.726414],[-71.293228,-11.735126],[-71.276154,-11.735208],[-71.263443,-11.747193],[-71.248207,-11.74106],[-71.238564,-11.74522],[-71.237114,-11.75942],[-71.245338,-11.776607],[-71.256882,-11.784297],[-71.254547,-11.792873],[-71.240829,-11.801206],[-71.228279,-11.821196],[-71.201858,-11.829065],[-71.205406,-11.855436],[-71.19239,-11.885135],[-71.164703,-11.896907],[-71.148674,-11.897283],[-71.131966,-11.907848],[-71.12513,-11.921582],[-71.103111,-11.931943],[-71.09903,-11.943786],[-71.105782,-11.966989],[-71.102921,-11.972606],[-71.078827,-11.993554],[-71.061447,-11.999648],[-71.04705,-12.017414],[-71.034706,-12.021354],[-71.01992,-12.037875],[-71.009995,-12.062567],[-70.98378,-12.087755],[-70.980064,-12.098473],[-70.969193,-12.098181],[-70.946625,-12.12409],[-70.920982,-12.136435],[-70.902611,-12.151494],[-70.897797,-12.170599],[-70.902603,-12.179695],[-70.872879,-12.197714],[-70.852173,-12.202328],[-70.856178,-12.220008],[-70.86692,-12.223967],[-70.87558,-12.220048],[-70.889816,-12.237631],[-70.911041,-12.23103],[-70.918213,-12.23991],[-70.916336,-12.261146],[-70.926453,-12.255598],[-70.936043,-12.267091],[-70.943108,-12.267782],[-70.932157,-12.271429],[-70.931303,-12.282697],[-70.956387,-12.307021],[-70.955548,-12.312001],[-70.945936,-12.317833],[-70.955235,-12.325491],[-70.961203,-12.339151],[-70.968966,-12.342756],[-70.983309,-12.337395],[-70.994301,-12.350004],[-71.013155,-12.343976],[-71.018351,-12.349667],[-71.026423,-12.347665],[-71.038949,-12.369082],[-71.048672,-12.373571],[-71.048231,-12.391831],[-71.058431,-12.394337],[-71.067607,-12.405709],[-71.077601,-12.408239],[-71.089187,-12.419628],[-71.1,-12.419685],[-71.186073,-12.306393],[-71.189835,-12.30658],[-71.186814,-12.315449],[-71.177414,-12.319487],[-71.189488,-12.322869],[-71.184967,-12.330707],[-71.187942,-12.332432],[-71.191597,-12.327683],[-71.191061,-12.339284],[-71.198016,-12.338435],[-71.212045,-12.34624],[-71.208172,-12.353505],[-71.212028,-12.353285],[-71.211369,-12.358186],[-71.216103,-12.357384],[-71.217684,-12.36486],[-71.217819,-12.371742],[-71.213538,-12.368799],[-71.209878,-12.372242],[-71.212046,-12.38242],[-71.208526,-12.379617],[-71.200547,-12.385976],[-71.209798,-12.39081],[-71.209156,-12.396538],[-71.215752,-12.396448],[-71.215098,-12.406613],[-71.231939,-12.403742],[-71.231807,-12.408735],[-71.241533,-12.408824],[-71.241661,-12.418068],[-71.252661,-12.419753],[-71.249033,-12.425197],[-71.250483,-12.436796],[-71.26171,-12.442687],[-71.278037,-12.491906],[-71.290854,-12.503241],[-71.284907,-12.522073],[-71.286734,-12.533759],[-71.29262,-12.534493],[-71.285374,-12.536797],[-71.286474,-12.542315],[-71.439746,-12.568256],[-71.492255,-12.784379],[-71.499154,-12.776847],[-71.502321,-12.756482],[-71.513613,-12.743963],[-71.525856,-12.74521],[-71.546919,-12.734966],[-71.552584,-12.725082],[-71.549278,-12.716802],[-71.55261,-12.708962],[-71.559997,-12.710831],[-71.565476,-12.705437],[-71.596962,-12.700373],[-71.638959,-12.709439],[-71.660544,-12.728925],[-71.694973,-12.738799],[-71.69475,-12.753743],[-71.708092,-12.772923],[-71.722984,-12.786549],[-71.747157,-12.796163],[-71.760205,-12.787941],[-71.764667,-12.767462],[-71.799506,-12.765559],[-71.812241,-12.743862],[-71.869486,-12.735719],[-71.881612,-12.730443],[-71.901041,-12.732633],[-71.918244,-12.720482],[-71.917774,-12.698782],[-71.927994,-12.699338],[-71.952262,-12.690713],[-71.967116,-12.694919],[-71.977911,-12.683259],[-71.970446,-12.662114],[-71.956322,-12.654495],[-71.956927,-12.639081],[-71.965178,-12.631058],[-71.965463,-12.614022],[-71.9841,-12.607472],[-71.980582,-12.58047],[-71.98639,-12.57631],[-71.991928,-12.578057],[-72.000494,-12.57035],[-72.009813,-12.546941],[-72.028282,-12.526144],[-72.032731,-12.523338],[-72.038352,-12.52651],[-72.05102,-12.519943],[-72.055824,-12.507506],[-72.064405,-12.506111],[-72.070652,-12.512233],[-72.075469,-12.507493],[-72.068024,-12.474007],[-72.063724,-12.469453],[-72.059964,-12.438422],[-72.04813,-12.433424],[-72.044617,-12.423326],[-72.019764,-12.416428],[-72.004793,-12.401805],[-71.975823,-12.398976],[-71.976229,-12.393142],[-71.963059,-12.376948],[-71.970589,-12.360587],[-71.967227,-12.347846],[-71.961647,-12.338107],[-71.95282,-12.337268],[-71.944896,-12.3302],[-71.956515,-12.320799],[-71.977048,-12.318753],[-71.989897,-12.306465],[-72.010728,-12.299711],[-72.02928,-12.287256],[-72.033508,-12.265383],[-72.044244,-12.254294],[-72.056806,-12.256994],[-72.073964,-12.243236],[-72.086835,-12.246151],[-72.093838,-12.236534],[-72.102776,-12.235499],[-72.101305,-12.216999],[-72.091675,-12.187834],[-72.100424,-12.169911],[-72.086763,-12.14284],[-72.093235,-12.12959],[-72.095607,-12.100007],[-72.087632,-12.086771],[-72.172867,-12.060172],[-72.231033,-12.061615],[-72.237045,-12.057405],[-72.269676,-12.054061],[-72.272618,-12.045932],[-72.263506,-12.02222],[-72.267269,-12.019276],[-72.264996,-12.010276],[-72.259031,-12.005904],[-72.279329,-11.99665],[-72.283041,-11.977304],[-72.293649,-11.971094],[-72.317368,-11.972049],[-72.34049,-11.96577],[-72.335879,-11.937101],[-72.337975,-11.92372],[-72.346716,-11.914339],[-72.343425,-11.903991],[-72.34627,-11.89489],[-72.33131,-11.877154],[-72.334683,-11.867087],[-72.331719,-11.855932],[-72.35768,-11.847075],[-72.36866,-11.835381],[-72.39017,-11.828078],[-72.391175,-11.806575],[-72.373947,-11.796307],[-72.363052,-11.774406],[-72.384229,-11.768197],[-72.385281,-11.761884],[-72.392342,-11.760688],[-72.417168,-11.741665],[-72.400726,-11.72365],[-72.402183,-11.708383],[-72.407501,-11.701422],[-72.405671,-11.675078],[-72.384765,-11.666541],[-72.377762,-11.655762],[-72.38118,-11.649916],[-72.374167,-11.642306],[-72.375332,-11.632542],[-72.368987,-11.630197],[-72.355623,-11.635025],[-72.349476,-11.619341],[-72.328194,-11.608541],[-72.307894,-11.587537],[-72.306092,-11.572896],[-72.313297,-11.561537],[-72.303099,-11.525898],[-72.305088,-11.511685],[-72.298548,-11.504164],[-72.304031,-11.496801],[-72.2901,-11.48364],[-72.287523,-11.467373],[-72.292404,-11.433146],[-72.265274,-11.392336],[-72.259231,-11.393048],[-72.247101,-11.384642],[-72.238464,-11.344282],[-72.225501,-11.338264],[-72.217384,-11.346131]]]}},{"type":"Feature","properties":{"id":"bahuaja","codigo":"PN08","nombre":"Parque Nacional Bahuaja-Sonene","categoria":"Parque Nacional","departamentos":["Madre de Dios","Puno"],"total_ha":1091416.0,"mdd_ha":334652.27},"geometry":{"type":"Polygon","coordinates":[[[-70.327516,-13.162253],[-70.327909,-13.14473],[-70.338902,-13.133207],[-70.318623,-13.139884],[-70.307588,-13.137789],[-70.306324,-13.141086],[-70.311549,-13.14303],[-70.305621,-13.144742],[-70.308075,-13.149955],[-70.298236,-13.142375],[-70.294712,-13.14958],[-70.291652,-13.14578],[-70.287393,-13.147673],[-70.288801,-13.151815],[-70.280035,-13.150792],[-70.28374,-13.157617],[-70.270099,-13.154982],[-70.265653,-13.143396],[-70.265451,-13.148324],[-70.260526,-13.148782],[-70.265942,-13.150473],[-70.267985,-13.160381],[-70.263829,-13.155791],[-70.262088,-13.159497],[-70.257821,-13.158189],[-70.259068,-13.165786],[-70.249411,-13.160716],[-70.244737,-13.171262],[-70.235611,-13.165068],[-70.219824,-13.174004],[-70.221272,-13.165507],[-70.218701,-13.169724],[-70.20767,-13.169125],[-70.218427,-13.159708],[-70.213484,-13.154053],[-70.211211,-13.15891],[-70.207351,-13.158937],[-70.205777,-13.156847],[-70.211131,-13.155936],[-70.210739,-13.151571],[-70.209003,-13.154861],[-70.196877,-13.145958],[-70.203381,-13.145313],[-70.19568,-13.141995],[-70.198043,-13.137518],[-70.204835,-13.138246],[-70.189672,-13.125804],[-70.19239,-13.143448],[-70.186525,-13.14795],[-70.181638,-13.140821],[-70.179757,-13.121591],[-70.165213,-13.131937],[-70.156412,-13.12421],[-70.134339,-13.116687],[-70.119066,-13.100227],[-70.111923,-13.085358],[-70.098625,-13.081604],[-70.097367,-13.067985],[-70.05547,-13.10273],[-70.04923,-13.101812],[-70.030911,-13.084165],[-70.023568,-13.085892],[-70.014011,-13.081378],[-70.008419,-13.084756],[-69.999774,-13.079034],[-69.995078,-13.08252],[-69.988098,-13.080654],[-69.989546,-13.088041],[-69.977887,-13.0858],[-69.978067,-13.092255],[-69.973015,-13.086935],[-69.967765,-13.088375],[-69.961229,-13.096335],[-69.959841,-13.091382],[-69.957434,-13.095114],[-69.951971,-13.090209],[-69.952502,-13.094169],[-69.945999,-13.096011],[-69.852257,-13.104892],[-69.830574,-13.098768],[-69.801779,-13.114197],[-69.797469,-13.133466],[-69.768217,-13.143872],[-69.740475,-13.160717],[-69.727364,-13.160926],[-69.701703,-13.145996],[-69.703792,-13.157388],[-69.696289,-13.166359],[-69.687287,-13.167183],[-69.661183,-13.158082],[-69.652725,-13.158174],[-69.648736,-13.163699],[-69.636718,-13.158399],[-69.630911,-13.16128],[-69.632987,-13.166978],[-69.628603,-13.173034],[-69.615892,-13.172264],[-69.61069,-13.156069],[-69.590459,-13.141807],[-69.593742,-13.133036],[-69.591721,-13.106571],[-69.579696,-13.103912],[-69.575195,-13.095384],[-69.566892,-13.095925],[-69.564795,-13.086882],[-69.558954,-13.086801],[-69.556857,-13.079315],[-69.549963,-13.077572],[-69.547687,-13.060845],[-69.534135,-13.059357],[-69.539301,-13.045114],[-69.527211,-13.03147],[-69.519974,-13.028112],[-69.519565,-13.032778],[-69.50655,-13.033456],[-69.494765,-13.003662],[-69.499832,-12.965563],[-69.49388,-12.956572],[-69.47988,-12.96057],[-69.471814,-12.967729],[-69.41699,-12.972434],[-69.405386,-12.989468],[-69.407408,-12.992885],[-69.399867,-13.003801],[-69.408391,-13.016682],[-69.404773,-13.042124],[-69.410761,-13.063523],[-69.408741,-13.076242],[-69.416122,-13.086075],[-69.410532,-13.094535],[-69.415267,-13.115993],[-69.139892,-13.116289],[-69.137853,-13.092697],[-69.129505,-13.08477],[-69.136026,-13.060711],[-69.131597,-13.054722],[-69.126631,-13.055041],[-69.12103,-13.043371],[-69.125281,-13.03492],[-69.116559,-13.026702],[-69.114352,-13.01813],[-69.120769,-13.01328],[-69.120399,-13.002652],[-69.124422,-12.998386],[-69.120911,-12.990051],[-69.126913,-12.985858],[-69.115506,-12.975022],[-69.105824,-12.953727],[-69.107195,-12.944701],[-69.093999,-12.932876],[-69.083211,-12.910898],[-69.08465,-12.889363],[-69.079403,-12.885529],[-69.084306,-12.873329],[-69.092211,-12.868532],[-69.086744,-12.864007],[-69.088788,-12.858198],[-69.083065,-12.845482],[-69.072415,-12.844765],[-69.059866,-12.831554],[-69.057509,-12.818288],[-69.049799,-12.809832],[-69.017693,-12.791933],[-69.013895,-12.770649],[-68.997476,-12.758987],[-68.989013,-12.734774],[-68.990235,-12.722258],[-68.982733,-12.716599],[-68.984634,-12.702897],[-68.980007,-12.699285],[-68.980298,-12.689498],[-68.975882,-12.682571],[-68.968852,-12.681555],[-68.966309,-12.670552],[-68.96068,-12.666717],[-68.732141,-12.66928],[-68.729304,-12.662323],[-68.720627,-12.661229],[-68.720386,-12.664388],[-68.727855,-12.665768],[-68.728604,-12.672106],[-68.725767,-12.674107],[-68.720138,-12.667297],[-68.717956,-12.676593],[-68.712295,-12.680376],[-68.735269,-12.69221],[-68.732532,-12.697233],[-68.726542,-12.691551],[-68.725572,-12.696991],[-68.742817,-12.710274],[-68.739935,-12.71387],[-68.735304,-12.709969],[-68.728213,-12.712946],[-68.740643,-12.71719],[-68.746238,-12.729285],[-68.767436,-12.741806],[-68.780873,-12.731598],[-68.789033,-12.757396],[-68.792811,-12.760197],[-68.804199,-12.756338],[-68.803962,-12.763918],[-68.808944,-12.766845],[-68.80461,-12.770588],[-68.809354,-12.776967],[-68.805374,-12.784058],[-68.812199,-12.784102],[-68.818682,-12.791316],[-68.808138,-12.808687],[-68.824587,-12.804562],[-68.825371,-12.812701],[-68.832932,-12.809913],[-68.839703,-12.823427],[-68.82957,-12.828381],[-68.839655,-12.829749],[-68.831273,-12.842087],[-68.842093,-12.843259],[-68.83547,-12.858106],[-68.844491,-12.857237],[-68.850661,-12.866015],[-68.858541,-12.858466],[-68.860173,-12.864499],[-68.871281,-12.870201],[-68.864712,-12.875085],[-68.87287,-12.887405],[-68.866679,-12.894544],[-68.873127,-12.899566],[-68.868442,-12.904863],[-68.875456,-12.919709],[-68.861672,-12.925898],[-68.864085,-12.928772],[-68.872681,-12.925033],[-68.876939,-12.928667],[-68.866395,-12.931457],[-68.873838,-12.939598],[-68.860686,-12.948326],[-68.8781,-12.940385],[-68.874927,-12.948244],[-68.882434,-12.957432],[-68.876233,-12.961182],[-68.875132,-12.98038],[-68.870306,-12.979659],[-68.870204,-12.97329],[-68.864198,-12.972831],[-68.863534,-12.983966],[-68.87735,-12.987851],[-68.868942,-12.990047],[-68.869536,-13.0],[-69.652112,-13.345263],[-69.666396,-13.346271],[-69.680186,-13.354471],[-69.681837,-13.359694],[-69.710848,-13.37094],[-69.709922,-13.383376],[-69.719439,-13.397897],[-69.782606,-13.394299],[-69.794435,-13.3788],[-69.794936,-13.362695],[-69.800031,-13.358071],[-69.8247,-13.35758],[-69.839633,-13.341454],[-69.837753,-13.328467],[-69.849836,-13.322194],[-69.854069,-13.33048],[-69.858665,-13.329866],[-69.880617,-13.317331],[-69.884537,-13.31093],[-69.899437,-13.31208],[-69.908341,-13.302814],[-69.917155,-13.304453],[-69.926693,-13.300259],[-69.934274,-13.307099],[-69.951976,-13.299332],[-69.965636,-13.304504],[-69.977064,-13.29859],[-69.993144,-13.310516],[-70.023046,-13.298537],[-70.053784,-13.298637],[-70.066315,-13.290167],[-70.064004,-13.285264],[-70.068161,-13.278423],[-70.101833,-13.266188],[-70.10552,-13.258349],[-70.151147,-13.238395],[-70.172733,-13.222273],[-70.191445,-13.221347],[-70.19827,-13.211875],[-70.209078,-13.213729],[-70.237745,-13.194614],[-70.276908,-13.185211],[-70.283449,-13.177474],[-70.299015,-13.171308],[-70.311341,-13.172188],[-70.327516,-13.162253]]]}},{"type":"Feature","properties":{"id":"alto-purus","codigo":"PN11","nombre":"Parque Nacional Alto Purús","categoria":"Parque Nacional","departamentos":["Madre de Dios","Ucayali"],"total_ha":2510694.41,"mdd_ha":1251841.31},"geometry":{"type":"Polygon","coordinates":[[[-72.17305,-11.031083],[-72.185625,-11.009176],[-72.173851,-10.995531],[-72.157064,-11.00492],[-72.1531,-10.994015],[-72.133067,-10.979619],[-72.124934,-10.982677],[-72.124642,-10.995948],[-72.105796,-10.992618],[-72.096144,-11.001171],[-72.07281,-11.007164],[-72.058727,-11.003415],[-72.051956,-11.00564],[-72.043699,-10.99692],[-72.03168,-10.999696],[-72.009003,-10.986354],[-71.984925,-10.995276],[-71.979251,-10.9901],[-71.96141,-10.991716],[-71.939508,-11.003211],[-71.927138,-11.00178],[-71.922995,-10.995994],[-71.917831,-10.999286],[-71.896774,-10.994041],[-71.876262,-11.00007],[-71.847148,-10.995401],[-71.827572,-11.011426],[-71.822605,-11.002112],[-71.808525,-10.993617],[-71.78775,-10.992898],[-71.779734,-10.987543],[-71.74878,-10.994985],[-71.730502,-10.9833],[-71.717187,-10.998492],[-71.71323,-10.984973],[-71.702536,-10.973804],[-71.692993,-10.979157],[-71.681814,-10.971189],[-71.662512,-10.982418],[-71.611655,-10.968423],[-71.597921,-10.969904],[-71.593872,-10.974332],[-71.57102,-10.961599],[-71.557809,-10.964487],[-71.542181,-10.95361],[-71.532142,-10.951689],[-71.527755,-10.959552],[-71.50846,-10.966279],[-71.494221,-10.961369],[-71.486178,-10.963912],[-71.472247,-10.953245],[-71.447632,-10.959052],[-71.42884,-10.953228],[-71.409192,-10.957458],[-71.397943,-10.951768],[-71.396056,-10.946492],[-71.378205,-10.953256],[-71.370375,-10.947448],[-71.362368,-10.951536],[-71.354379,-10.950106],[-71.344228,-10.941986],[-71.337699,-10.917113],[-71.328586,-10.91066],[-71.322043,-10.911958],[-71.315896,-10.903357],[-71.312819,-10.883306],[-71.30584,-10.875189],[-71.29613,-10.877374],[-71.273233,-10.853535],[-71.2674,-10.840406],[-71.271362,-10.814089],[-71.257706,-10.784622],[-71.249657,-10.782942],[-71.245054,-10.776529],[-71.231902,-10.779852],[-71.221558,-10.775885],[-71.227632,-10.76153],[-71.217828,-10.759769],[-71.223702,-10.730091],[-71.214457,-10.713547],[-71.230101,-10.6997],[-71.231723,-10.678607],[-71.211625,-10.668208],[-71.206354,-10.653712],[-71.220905,-10.634124],[-71.208831,-10.616481],[-71.204853,-10.590795],[-71.194755,-10.578248],[-71.166372,-10.570778],[-71.162812,-10.546525],[-71.165211,-10.531735],[-71.145914,-10.530428],[-71.129056,-10.505185],[-71.116299,-10.501858],[-71.108379,-10.507782],[-71.099906,-10.50176],[-71.082394,-10.502296],[-71.041392,-10.489115],[-71.024741,-10.478645],[-71.001198,-10.443975],[-71.000409,-10.431417],[-70.994383,-10.421671],[-70.973085,-10.396574],[-70.957449,-10.387448],[-70.970615,-10.344279],[-70.966819,-10.336385],[-70.939703,-10.330847],[-70.894676,-10.336287],[-70.875027,-10.305601],[-70.876757,-10.270729],[-70.866799,-10.255374],[-70.849503,-10.250589],[-70.835459,-10.25482],[-70.810533,-10.25394],[-70.784523,-10.239217],[-70.774956,-10.220713],[-70.759068,-10.211095],[-70.750441,-10.192142],[-70.717385,-10.174018],[-70.71235,-10.163639],[-70.704177,-10.159017],[-70.708221,-10.139176],[-70.697483,-10.117188],[-70.683287,-10.112738],[-70.681703,-10.10298],[-70.671552,-10.100699],[-70.659702,-10.084613],[-70.6499,-10.079475],[-70.651573,-10.073148],[-70.645086,-10.067813],[-70.657113,-10.059066],[-70.658243,-10.048431],[-70.645153,-10.037534],[-70.634716,-10.040059],[-70.61358,-10.027738],[-70.614082,-11.000013],[-70.611763,-11.071492],[-70.599114,-11.124763],[-70.711128,-11.144578],[-70.855713,-11.10361],[-70.934654,-11.126741],[-70.921105,-11.240532],[-71.005798,-11.341668],[-71.09005,-11.450988],[-71.135307,-11.612393],[-71.361778,-11.673216],[-71.364327,-11.661131],[-71.352501,-11.620997],[-71.373085,-11.605954],[-71.369545,-11.595465],[-71.387428,-11.576883],[-71.408577,-11.57819],[-71.408554,-11.567419],[-71.400406,-11.55302],[-71.419258,-11.530733],[-71.421646,-11.51012],[-71.44088,-11.502342],[-71.46093,-11.515266],[-71.477219,-11.508035],[-71.49823,-11.486838],[-71.509895,-11.487244],[-71.527329,-11.48094],[-71.556076,-11.487123],[-71.570763,-11.470287],[-71.579918,-11.46961],[-71.582932,-11.437842],[-71.587776,-11.430852],[-71.608902,-11.428695],[-71.615906,-11.432689],[-71.626907,-11.423194],[-71.645798,-11.427451],[-71.662796,-11.413591],[-71.664322,-11.405211],[-71.657425,-11.400965],[-71.646713,-11.382893],[-71.658585,-11.36524],[-71.660706,-11.349636],[-71.667595,-11.352293],[-71.682686,-11.374282],[-71.692391,-11.375828],[-71.697502,-11.370234],[-71.699638,-11.354441],[-71.720589,-11.338989],[-71.736229,-11.342458],[-71.749321,-11.330402],[-71.756249,-11.342145],[-71.762543,-11.342366],[-71.773354,-11.333764],[-71.779419,-11.320499],[-71.789673,-11.315877],[-71.804344,-11.324049],[-71.82859,-11.31622],[-71.826401,-11.328401],[-71.831795,-11.331655],[-71.832748,-11.343092],[-71.843475,-11.349031],[-71.847618,-11.368196],[-71.877205,-11.365949],[-71.888451,-11.35621],[-71.903976,-11.350998],[-71.917923,-11.358565],[-71.93148,-11.378944],[-71.969521,-11.391027],[-71.98951,-11.390401],[-71.991074,-11.380729],[-72.022148,-11.369916],[-72.036491,-11.381266],[-72.05188,-11.373005],[-72.07402,-11.37496],[-72.090492,-11.382157],[-72.112785,-11.365621],[-72.112083,-11.351918],[-72.102936,-11.343327],[-72.103859,-11.332939],[-72.137207,-11.329778],[-72.157623,-11.321153],[-72.182297,-11.328086],[-72.185234,-11.352166],[-72.191785,-11.355669],[-72.198715,-11.353356],[-72.208473,-11.338169],[-72.218692,-11.298272],[-72.206243,-11.267447],[-72.196869,-11.261426],[-72.203588,-11.244916],[-72.196343,-11.226699],[-72.200501,-11.203256],[-72.196107,-11.192824],[-72.183327,-11.191744],[-72.187073,-11.168197],[-72.180542,-11.15938],[-72.153404,-11.148522],[-72.150894,-11.142597],[-72.132439,-11.13441],[-72.118095,-11.11468],[-72.123314,-11.100727],[-72.144339,-11.091594],[-72.167572,-11.069171],[-72.169144,-11.059916],[-72.176102,-11.057567],[-72.17305,-11.031083]]]}},{"type":"Feature","properties":{"id":"tambopata","codigo":"RN09","nombre":"Reserva Nacional Tambopata","categoria":"Reserva Nacional","departamentos":["Madre de Dios"],"total_ha":274690.0,"mdd_ha":274690.0},"geometry":{"type":"Polygon","coordinates":[[[-69.504835,-12.932386],[-69.502993,-12.924016],[-69.512212,-12.917142],[-69.518218,-12.899986],[-69.511286,-12.886385],[-69.508975,-12.895709],[-69.501462,-12.89368],[-69.447327,-12.862514],[-69.429657,-12.887266],[-69.41462,-12.888231],[-69.403527,-12.874947],[-69.401863,-12.856484],[-69.390831,-12.846048],[-69.383385,-12.845679],[-69.379334,-12.855813],[-69.365143,-12.865554],[-69.332207,-12.841861],[-69.317176,-12.838469],[-69.309906,-12.841817],[-69.295926,-12.836869],[-69.227013,-12.775762],[-69.162705,-12.685208],[-69.038704,-12.669946],[-69.049408,-12.658585],[-69.065384,-12.621307],[-69.049873,-12.602723],[-69.052116,-12.595641],[-69.047907,-12.587316],[-69.038636,-12.578524],[-69.033093,-12.578413],[-69.033013,-12.567508],[-69.024735,-12.566034],[-69.026703,-12.555571],[-69.018273,-12.54671],[-69.016068,-12.551784],[-69.01072,-12.544513],[-69.01352,-12.537974],[-68.996613,-12.536374],[-68.993378,-12.546475],[-68.970149,-12.546393],[-68.968618,-12.54273],[-68.921661,-12.557054],[-68.913789,-12.556128],[-68.911072,-12.561056],[-68.893197,-12.560941],[-68.882691,-12.555466],[-68.883225,-12.551207],[-68.886323,-12.552085],[-68.879029,-12.541565],[-68.860143,-12.537631],[-68.862684,-12.52171],[-68.850492,-12.521257],[-68.848315,-12.517499],[-68.854489,-12.516169],[-68.847608,-12.512677],[-68.846209,-12.506364],[-68.838949,-12.511326],[-68.8302,-12.503938],[-68.829234,-12.510225],[-68.814244,-12.515969],[-68.808076,-12.525101],[-68.815938,-12.556915],[-68.769387,-12.556803],[-68.769745,-12.609885],[-68.732156,-12.609782],[-68.73464,-12.624564],[-68.741242,-12.633668],[-68.731513,-12.650856],[-68.737171,-12.657121],[-68.734688,-12.666588],[-68.96068,-12.666717],[-68.966309,-12.670552],[-68.968852,-12.681555],[-68.975882,-12.682571],[-68.980298,-12.689498],[-68.980007,-12.699285],[-68.984634,-12.702897],[-68.982733,-12.716599],[-68.990235,-12.722258],[-68.989013,-12.734774],[-68.997476,-12.758987],[-69.013895,-12.770649],[-69.017693,-12.791933],[-69.049799,-12.809832],[-69.057509,-12.818288],[-69.059866,-12.831554],[-69.072415,-12.844765],[-69.083065,-12.845482],[-69.088788,-12.858198],[-69.086744,-12.864007],[-69.092211,-12.868532],[-69.084306,-12.873329],[-69.079403,-12.885529],[-69.08465,-12.889363],[-69.083211,-12.910898],[-69.093999,-12.932876],[-69.107195,-12.944701],[-69.105824,-12.953727],[-69.115506,-12.975022],[-69.126913,-12.985858],[-69.120911,-12.990051],[-69.124422,-12.998386],[-69.120399,-13.002652],[-69.120769,-13.01328],[-69.114352,-13.01813],[-69.116559,-13.026702],[-69.125281,-13.03492],[-69.12103,-13.043371],[-69.126631,-13.055041],[-69.131597,-13.054722],[-69.136026,-13.060711],[-69.129505,-13.08477],[-69.137853,-13.092697],[-69.139892,-13.116289],[-69.415267,-13.115993],[-69.410532,-13.094535],[-69.416122,-13.086075],[-69.408741,-13.076242],[-69.410761,-13.063523],[-69.404773,-13.042124],[-69.408391,-13.016682],[-69.399867,-13.003801],[-69.407408,-12.992885],[-69.405386,-12.989468],[-69.41699,-12.972434],[-69.471814,-12.967729],[-69.47988,-12.96057],[-69.49388,-12.956572],[-69.499832,-12.965563],[-69.494765,-13.003662],[-69.50655,-13.033456],[-69.519565,-13.032778],[-69.519974,-13.028112],[-69.527211,-13.03147],[-69.539301,-13.045114],[-69.534135,-13.059357],[-69.547687,-13.060845],[-69.549963,-13.077572],[-69.556857,-13.079315],[-69.558954,-13.086801],[-69.564795,-13.086882],[-69.566892,-13.095925],[-69.575195,-13.095384],[-69.579696,-13.103912],[-69.591721,-13.106571],[-69.593742,-13.133036],[-69.590459,-13.141807],[-69.61069,-13.156069],[-69.615892,-13.172264],[-69.628603,-13.173034],[-69.632987,-13.166978],[-69.630911,-13.16128],[-69.636718,-13.158399],[-69.648736,-13.163699],[-69.652725,-13.158174],[-69.661183,-13.158082],[-69.687287,-13.167183],[-69.696289,-13.166359],[-69.703792,-13.157388],[-69.701703,-13.145996],[-69.727364,-13.160926],[-69.740475,-13.160717],[-69.768217,-13.143872],[-69.797469,-13.133466],[-69.801779,-13.114197],[-69.832874,-13.098317],[-69.852257,-13.104892],[-69.945999,-13.096011],[-69.952502,-13.094169],[-69.951971,-13.090209],[-69.957434,-13.095114],[-69.959841,-13.091382],[-69.959749,-13.094852],[-69.961229,-13.096335],[-69.967765,-13.088375],[-69.973015,-13.086935],[-69.978067,-13.092255],[-69.977887,-13.0858],[-69.989546,-13.088041],[-69.988098,-13.080654],[-69.995078,-13.08252],[-69.999774,-13.079034],[-70.008419,-13.084756],[-70.014011,-13.081378],[-70.023568,-13.085892],[-70.030911,-13.084165],[-70.04923,-13.101812],[-70.05547,-13.10273],[-70.097367,-13.067985],[-70.099871,-13.060717],[-70.075413,-13.026701],[-70.068572,-13.021171],[-70.064401,-13.023058],[-70.063592,-13.01421],[-70.057635,-13.010492],[-70.053351,-13.01568],[-70.03857,-13.0135],[-70.037888,-13.016729],[-70.043965,-13.01851],[-70.04355,-13.026152],[-70.035929,-13.02059],[-70.014928,-13.022754],[-70.006693,-13.011163],[-69.99156,-13.016458],[-69.979761,-13.008057],[-69.975284,-13.015893],[-69.983135,-13.018543],[-69.967888,-13.017153],[-69.966453,-13.025126],[-69.957828,-13.030863],[-69.958344,-13.037504],[-69.944424,-13.025762],[-69.936388,-13.033583],[-69.92137,-13.037674],[-69.922718,-13.029736],[-69.914883,-13.033194],[-69.913492,-13.024993],[-69.910565,-13.042802],[-69.899958,-13.042094],[-69.902637,-13.034489],[-69.89977,-13.031986],[-69.882023,-13.03882],[-69.87749,-13.046002],[-69.865545,-13.038135],[-69.862459,-13.045994],[-69.857065,-13.044312],[-69.846647,-13.052319],[-69.842056,-13.048174],[-69.852289,-13.038763],[-69.847355,-13.033448],[-69.817276,-13.05153],[-69.800982,-13.035121],[-69.792974,-13.015999],[-69.781735,-13.020004],[-69.775069,-13.014441],[-69.763739,-13.013744],[-69.7617,-13.010152],[-69.766553,-13.001642],[-69.739977,-12.990004],[-69.747233,-12.969889],[-69.728371,-12.983131],[-69.715725,-12.968302],[-69.702638,-12.97162],[-69.703421,-12.964683],[-69.717488,-12.958708],[-69.698705,-12.952269],[-69.710219,-12.939405],[-69.687974,-12.947665],[-69.680788,-12.925833],[-69.671031,-12.927697],[-69.641524,-12.912585],[-69.633025,-12.928387],[-69.611153,-12.942088],[-69.619631,-12.951321],[-69.618351,-12.954683],[-69.598509,-12.950936],[-69.589975,-12.955052],[-69.586418,-12.950036],[-69.588052,-12.940675],[-69.579636,-12.946313],[-69.571724,-12.945246],[-69.578422,-12.955614],[-69.572636,-12.964013],[-69.557332,-12.953472],[-69.555109,-12.945038],[-69.544405,-12.937378],[-69.516525,-12.939964],[-69.504835,-12.932386]]]}},{"type":"Feature","properties":{"id":"amarakaeri","codigo":"RC03","nombre":"Reserva Comunal Amarakaeri","categoria":"Reserva Comunal","departamentos":["Madre de Dios"],"total_ha":402335.62,"mdd_ha":402335.62},"geometry":{"type":"Polygon","coordinates":[[[-71.20855,-12.959356],[-71.204086,-12.956411],[-71.21489,-12.947889],[-71.22126,-12.947807],[-71.237564,-12.932866],[-71.251816,-12.903701],[-71.272705,-12.890643],[-71.274109,-12.851106],[-71.285462,-12.828552],[-71.281921,-12.825799],[-71.283836,-12.815824],[-71.293335,-12.811305],[-71.290764,-12.804469],[-71.299721,-12.802385],[-71.328621,-12.773459],[-71.332558,-12.753772],[-71.329811,-12.736483],[-71.322632,-12.727148],[-71.235191,-12.727892],[-71.233795,-12.721948],[-71.246712,-12.702528],[-71.233391,-12.689004],[-71.239296,-12.688601],[-71.239395,-12.683585],[-71.183952,-12.709351],[-71.170334,-12.705838],[-71.165909,-12.695672],[-71.150704,-12.68111],[-71.128998,-12.6696],[-71.126099,-12.660242],[-71.129364,-12.655074],[-71.121048,-12.648643],[-71.123077,-12.628772],[-71.115501,-12.617688],[-71.104317,-12.613701],[-71.105873,-12.600846],[-71.100784,-12.591704],[-71.091461,-12.592772],[-71.090271,-12.587883],[-71.078087,-12.583658],[-71.075966,-12.577293],[-71.065628,-12.576018],[-71.054772,-12.581705],[-71.054062,-12.572754],[-71.045036,-12.570817],[-71.046715,-12.567396],[-71.038879,-12.560055],[-71.034996,-12.564096],[-71.028549,-12.564191],[-71.029396,-12.559277],[-71.026077,-12.563821],[-71.013481,-12.565425],[-71.007103,-12.562238],[-71.005524,-12.554043],[-71.001869,-12.557134],[-71.069206,-12.463544],[-71.000748,-12.411639],[-70.841667,-12.412766],[-70.840935,-12.308824],[-70.809052,-12.316088],[-70.78579,-12.347733],[-70.766327,-12.365377],[-70.757683,-12.403905],[-70.725159,-12.465364],[-70.704514,-12.478386],[-70.672028,-12.490702],[-70.761498,-12.526289],[-70.731796,-12.562512],[-70.719041,-12.558732],[-70.693627,-12.566525],[-70.693309,-12.558912],[-70.686873,-12.560537],[-70.685158,-12.568712],[-70.700279,-12.589055],[-70.72155,-12.598347],[-70.726174,-12.608956],[-70.578568,-12.554536],[-70.49334,-12.61515],[-70.682602,-12.702159],[-70.886124,-12.770477],[-70.866898,-12.848254],[-70.773781,-12.968204],[-70.761978,-12.964424],[-70.762344,-12.969628],[-70.755402,-12.976472],[-70.639,-12.849966],[-70.610863,-12.880784],[-70.622345,-12.884429],[-70.628502,-12.894189],[-70.636238,-12.894584],[-70.649536,-12.904823],[-70.652283,-12.914614],[-70.666512,-12.927441],[-70.663544,-12.932486],[-70.666222,-12.937105],[-70.701714,-12.950417],[-70.724808,-12.951557],[-70.725426,-12.967588],[-70.716942,-12.972228],[-70.718445,-12.980669],[-70.712303,-12.984714],[-70.726334,-12.999545],[-70.726418,-13.004714],[-70.716652,-13.03093],[-70.695831,-13.041596],[-70.693359,-13.047587],[-70.694115,-13.056694],[-70.704987,-13.07273],[-70.702637,-13.086359],[-70.707108,-13.094093],[-70.733261,-13.089328],[-70.726174,-13.105098],[-70.744905,-13.103583],[-70.760499,-13.108228],[-70.798264,-13.091068],[-70.817353,-13.069851],[-70.842699,-13.066928],[-70.851498,-13.078419],[-70.864204,-13.080771],[-70.882309,-13.070589],[-70.907608,-13.070347],[-70.90036,-13.089308],[-70.889483,-13.100976],[-70.920815,-13.109431],[-70.926376,-13.114846],[-70.929466,-13.128687],[-70.945282,-13.137028],[-70.940964,-13.145448],[-70.943985,-13.155294],[-70.956897,-13.156077],[-70.963127,-13.167584],[-70.974394,-13.169112],[-70.983643,-13.178245],[-70.995201,-13.203895],[-70.994626,-13.222893],[-71.011833,-13.228572],[-71.012299,-13.251407],[-71.024386,-13.269025],[-71.030677,-13.271791],[-71.03611,-13.249066],[-71.044525,-13.244019],[-71.05191,-13.230811],[-71.065476,-13.229988],[-71.078743,-13.249862],[-71.086197,-13.251319],[-71.113152,-13.222169],[-71.129283,-13.224298],[-71.139345,-13.195971],[-71.139991,-13.167631],[-71.146597,-13.146798],[-71.143866,-13.137737],[-71.153793,-13.123175],[-71.15271,-13.116063],[-71.165352,-13.109612],[-71.167173,-13.095715],[-71.16102,-13.06845],[-71.17398,-13.053657],[-71.166496,-13.018032],[-71.167472,-13.011415],[-71.179022,-12.999183],[-71.17259,-12.982379],[-71.158933,-12.978725],[-71.161373,-12.967469],[-71.170151,-12.964179],[-71.185981,-12.968841],[-71.19634,-12.959399],[-71.20855,-12.959356]]]}},{"type":"Feature","properties":{"id":"purus","codigo":"RC06","nombre":"Reserva Comunal Purús","categoria":"Reserva Comunal","departamentos":["Madre de Dios","Ucayali"],"total_ha":202033.21,"mdd_ha":7173.2},"geometry":{"type":"MultiPolygon","coordinates":[[[[-70.658243,-10.048492],[-70.659318,-10.051012],[-70.659159,-10.05182],[-70.659681,-10.051385],[-70.659675,-10.050317],[-70.658243,-10.048492]]],[[[-70.642977,-9.907525],[-70.637068,-9.906202],[-70.613724,-9.90631],[-70.61358,-10.027738],[-70.617039,-10.029325],[-70.619234,-10.031633],[-70.624706,-10.034389],[-70.626276,-10.03639],[-70.629867,-10.0373],[-70.634716,-10.040059],[-70.637361,-10.038809],[-70.639388,-10.038645],[-70.640786,-10.037556],[-70.645153,-10.037534],[-70.653458,-10.045222],[-70.65432,-10.045414],[-70.653744,-10.041799],[-70.652059,-10.04006],[-70.652976,-10.037529],[-70.65296,-10.034324],[-70.653701,-10.033334],[-70.655929,-10.031104],[-70.657996,-10.029943],[-70.66288,-10.028439],[-70.667273,-10.028088],[-70.670252,-10.026841],[-70.672481,-10.025021],[-70.672408,-10.023261],[-70.671207,-10.019111],[-70.666876,-10.015352],[-70.66653,-10.013976],[-70.667108,-10.011981],[-70.666251,-10.006561],[-70.66267,-10.003374],[-70.659931,-10.002894],[-70.655888,-10.003182],[-70.654451,-10.001278],[-70.656344,-9.998474],[-70.657074,-9.995348],[-70.659707,-9.991307],[-70.660101,-9.987278],[-70.663392,-9.982413],[-70.666278,-9.979276],[-70.6675,-9.974996],[-70.667471,-9.970772],[-70.660287,-9.967761],[-70.657647,-9.965688],[-70.65255,-9.963453],[-70.652533,-9.959977],[-70.651824,-9.958589],[-70.647957,-9.956696],[-70.645659,-9.953057],[-70.645647,-9.950623],[-70.647504,-9.94707],[-70.647199,-9.944113],[-70.648151,-9.941667],[-70.646976,-9.935841],[-70.650454,-9.93067],[-70.649184,-9.926597],[-70.643942,-9.922678],[-70.641692,-9.920224],[-70.64199,-9.913565],[-70.643484,-9.910295],[-70.642977,-9.907525]]],[[[-71.133019,-10.510926],[-71.134701,-10.512703],[-71.13508,-10.513803],[-71.136406,-10.514392],[-71.133019,-10.510926]]],[[[-71.125355,-10.504781],[-71.129056,-10.505185],[-71.130571,-10.506116],[-71.13226,-10.5085],[-71.131303,-10.506409],[-71.128628,-10.50459],[-71.125355,-10.504781]]],[[[-71.11342,-10.503855],[-71.116299,-10.501858],[-71.118016,-10.502617],[-71.116662,-10.501316],[-71.116038,-10.501344],[-71.11342,-10.503855]]],[[[-71.11182,-10.505455],[-71.112456,-10.50471],[-71.111287,-10.505768],[-71.11182,-10.505455]]],[[[-71.106078,-10.504653],[-71.107055,-10.506623],[-71.107552,-10.507161],[-71.106078,-10.504653]]],[[[-71.100439,-10.502063],[-71.100945,-10.502259],[-71.099906,-10.50176],[-71.100439,-10.502063]]],[[[-71.095908,-10.501914],[-71.096634,-10.502148],[-71.097918,-10.502926],[-71.097102,-10.502248],[-71.095908,-10.501914]]],[[[-71.093688,-10.501085],[-71.094516,-10.501564],[-71.094869,-10.501608],[-71.093688,-10.501085]]],[[[-71.092463,-10.501697],[-71.093063,-10.501155],[-71.09351,-10.501054],[-71.093277,-10.501012],[-71.092814,-10.501266],[-71.092463,-10.501697]]],[[[-71.089512,-10.503092],[-71.089571,-10.503082],[-71.089338,-10.503007],[-71.089512,-10.503092]]],[[[-71.048945,-10.489129],[-71.051616,-10.491776],[-71.05748,-10.494534],[-71.058312,-10.495672],[-71.064579,-10.495141],[-71.067234,-10.497247],[-71.068958,-10.497399],[-71.064231,-10.494392],[-71.059374,-10.494048],[-71.055758,-10.492038],[-71.051883,-10.491255],[-71.048945,-10.489129]]],[[[-71.042766,-10.488324],[-71.044828,-10.487957],[-71.045675,-10.488251],[-71.047638,-10.488511],[-71.043796,-10.487673],[-71.042766,-10.488324]]],[[[-71.041028,-10.488938],[-71.041935,-10.488992],[-71.042761,-10.488326],[-71.041271,-10.488817],[-71.039892,-10.488121],[-71.041028,-10.488938]]],[[[-71.038481,-10.48746],[-71.039094,-10.487708],[-71.038176,-10.487208],[-71.038481,-10.48746]]],[[[-71.030841,-10.483085],[-71.035563,-10.484669],[-71.037061,-10.485907],[-71.036136,-10.484714],[-71.030841,-10.483085]]],[[[-71.028032,-10.479579],[-71.029073,-10.480585],[-71.029324,-10.481605],[-71.029057,-10.480205],[-71.028032,-10.479579]]],[[[-71.017792,-10.466232],[-71.022304,-10.471286],[-71.022506,-10.474513],[-71.023931,-10.477521],[-71.021807,-10.46897],[-71.020066,-10.46731],[-71.017792,-10.466232]]],[[[-71.012075,-10.458795],[-71.012805,-10.460819],[-71.012449,-10.457832],[-71.010147,-10.456127],[-71.012075,-10.458795]]],[[[-71.001198,-10.443975],[-71.003573,-10.44701],[-71.006665,-10.448784],[-71.008678,-10.451821],[-71.00934,-10.45399],[-71.008388,-10.450003],[-71.007233,-10.44767],[-71.005663,-10.446301],[-71.003212,-10.445899],[-71.001198,-10.443975]]],[[[-70.984018,-10.408894],[-70.98544,-10.411503],[-70.994383,-10.421671],[-70.995118,-10.423161],[-70.995477,-10.427868],[-70.997836,-10.428391],[-70.999293,-10.429458],[-71.000409,-10.431417],[-70.999093,-10.428973],[-70.995532,-10.426466],[-70.995323,-10.419612],[-70.993235,-10.4153],[-70.991907,-10.41384],[-70.984018,-10.408894]]],[[[-70.966819,-10.336385],[-70.969191,-10.33924],[-70.970576,-10.341077],[-70.969161,-10.335801],[-70.966432,-10.334267],[-70.962671,-10.334439],[-70.966819,-10.336385]]],[[[-70.939703,-10.330847],[-70.946867,-10.33238],[-70.947151,-10.332412],[-70.942429,-10.330985],[-70.939703,-10.330847]]],[[[-70.865208,-10.253936],[-70.874374,-10.265899],[-70.876757,-10.270729],[-70.877514,-10.276285],[-70.877563,-10.284537],[-70.878474,-10.286314],[-70.881856,-10.276388],[-70.882807,-10.270725],[-70.882192,-10.266169],[-70.88032,-10.262649],[-70.877101,-10.259281],[-70.872666,-10.256696],[-70.865208,-10.253936]]],[[[-70.857437,-10.25307],[-70.859423,-10.253563],[-70.860448,-10.253437],[-70.861267,-10.253107],[-70.859728,-10.25351],[-70.857437,-10.25307]]],[[[-70.850311,-10.250631],[-70.852767,-10.251089],[-70.854033,-10.251594],[-70.850311,-10.250631]]],[[[-70.835459,-10.25482],[-70.83943,-10.252466],[-70.849503,-10.250589],[-70.844004,-10.250667],[-70.831834,-10.25247],[-70.819242,-10.253268],[-70.816082,-10.254292],[-70.835459,-10.25482]]],[[[-70.762417,-10.212887],[-70.772406,-10.218036],[-70.777293,-10.223764],[-70.775203,-10.218914],[-70.771318,-10.214727],[-70.768136,-10.213355],[-70.762417,-10.212887]]],[[[-70.744264,-10.188587],[-70.750441,-10.192142],[-70.75427,-10.196965],[-70.757138,-10.208072],[-70.757869,-10.208839],[-70.757606,-10.202686],[-70.756678,-10.197845],[-70.752684,-10.193261],[-70.747879,-10.189603],[-70.743364,-10.187842],[-70.740958,-10.187514],[-70.744264,-10.188587]]],[[[-70.727457,-10.178624],[-70.731554,-10.181641],[-70.730835,-10.180002],[-70.729283,-10.178735],[-70.727457,-10.178624]]],[[[-70.717219,-10.173644],[-70.719566,-10.175442],[-70.723074,-10.176291],[-70.720122,-10.174575],[-70.717219,-10.173644]]],[[[-70.71235,-10.163639],[-70.715002,-10.168649],[-70.715331,-10.169389],[-70.714801,-10.166568],[-70.71235,-10.163639]]],[[[-70.704177,-10.159017],[-70.70456,-10.159238],[-70.70422,-10.158519],[-70.704177,-10.159017]]],[[[-70.705515,-10.15066],[-70.704518,-10.155069],[-70.704441,-10.155962],[-70.705719,-10.153097],[-70.705515,-10.15066]]],[[[-70.707537,-10.14393],[-70.707273,-10.146263],[-70.707716,-10.143389],[-70.707537,-10.14393]]],[[[-70.705576,-10.133529],[-70.707864,-10.137291],[-70.708221,-10.139176],[-70.708467,-10.137269],[-70.707738,-10.135649],[-70.705576,-10.133529]]],[[[-70.704761,-10.132463],[-70.705411,-10.133313],[-70.704894,-10.131921],[-70.704761,-10.132463]]],[[[-70.69848,-10.119975],[-70.699094,-10.122266],[-70.698741,-10.124062],[-70.699292,-10.125495],[-70.700753,-10.127819],[-70.704261,-10.129905],[-70.700081,-10.126695],[-70.699168,-10.124543],[-70.699205,-10.121597],[-70.69848,-10.119975]]],[[[-70.69808,-10.118863],[-70.698129,-10.118998],[-70.698045,-10.118704],[-70.69808,-10.118863]]],[[[-70.697942,-10.118239],[-70.697858,-10.117765],[-70.697826,-10.117715],[-70.697942,-10.118239]]],[[[-70.689099,-10.112348],[-70.690805,-10.112442],[-70.691898,-10.113871],[-70.693897,-10.115296],[-70.695753,-10.115838],[-70.694924,-10.114992],[-70.692638,-10.11432],[-70.690981,-10.112067],[-70.689099,-10.112348]]],[[[-70.68178,-10.105739],[-70.683182,-10.108893],[-70.683583,-10.109286],[-70.683582,-10.108213],[-70.68178,-10.105739]]],[[[-70.681703,-10.10298],[-70.681532,-10.104954],[-70.68171,-10.105519],[-70.681857,-10.10312],[-70.68127,-10.102491],[-70.679618,-10.102132],[-70.681703,-10.10298]]],[[[-70.671351,-10.100305],[-70.674089,-10.101045],[-70.675773,-10.101453],[-70.671351,-10.100305]]],[[[-70.670296,-10.098407],[-70.670261,-10.09834],[-70.670239,-10.098323],[-70.670296,-10.098407]]],[[[-70.664633,-10.09302],[-70.666812,-10.094265],[-70.668817,-10.096292],[-70.667214,-10.094042],[-70.664633,-10.09302]]],[[[-70.654692,-10.081587],[-70.659702,-10.084613],[-70.663845,-10.090143],[-70.663842,-10.088694],[-70.661605,-10.087127],[-70.66005,-10.084137],[-70.658294,-10.083252],[-70.656746,-10.081576],[-70.654692,-10.081587]]],[[[-70.650719,-10.080601],[-70.652226,-10.080759],[-70.650503,-10.079971],[-70.650719,-10.080601]]],[[[-70.651573,-10.073148],[-70.65053,-10.076731],[-70.650459,-10.077705],[-70.651597,-10.076245],[-70.651922,-10.074846],[-70.651916,-10.073614],[-70.651021,-10.072202],[-70.651573,-10.073148]]],[[[-70.652109,-10.062303],[-70.649403,-10.063899],[-70.649172,-10.06413],[-70.651363,-10.06285],[-70.652109,-10.062303]]],[[[-70.657113,-10.059066],[-70.655543,-10.060291],[-70.655041,-10.060542],[-70.656178,-10.060229],[-70.656904,-10.0597],[-70.657113,-10.059066]]]]}}]}