{"type":"FeatureCollection","features":[{"type":"Feature","geometry":{"type":"Polygon","coordinates":[[[-70.384801,-13.19513],[-70.399412,-13.181482],[-70.40885,-13.182706],[-70.416586,-13.177246],[-70.443235,-13.17095],[-70.467573,-13.158551],[-70.508871,-13.157591],[-70.527846,-13.152359],[-70.548437,-13.153998],[-70.559347,-13.136539],[-70.571234,-13.127744],[-70.580595,-13.114729],[-70.59593,-13.108355],[-70.609648,-13.097469],[-70.615156,-13.098745],[-70.628851,-13.092637],[-70.638899,-13.090363],[-70.650953,-13.092335],[-70.667326,-13.088155],[-70.695097,-13.105262],[-70.726752,-13.105691],[-70.740629,-13.103431],[-70.761396,-13.106949],[-70.798696,-13.090331],[-70.821562,-13.069775],[-70.841665,-13.068665],[-70.851919,-13.07768],[-70.859884,-13.079071],[-70.896231,-13.068429],[-70.900641,-13.071404],[-70.89942,-13.077808],[-70.8878,-13.102911],[-70.916159,-13.108478],[-70.929434,-13.125144],[-70.940634,-13.134623],[-70.935522,-13.146957],[-70.938605,-13.153213],[-70.945234,-13.158361],[-70.95603,-13.15587],[-70.961363,-13.166682],[-70.97991,-13.179632],[-70.991171,-13.203926],[-70.990439,-13.22002],[-70.998739,-13.228559],[-71.006514,-13.230603],[-71.009665,-13.235407],[-71.008856,-13.254785],[-71.011244,-13.270233],[-71.037115,-13.275853],[-71.052595,-13.269741],[-71.062987,-13.2738],[-71.077689,-13.287057],[-71.082869,-13.28702],[-71.102003,-13.268879],[-71.12776,-13.253913],[-71.129004,-13.235],[-71.135435,-13.222545],[-71.136679,-13.203369],[-71.141432,-13.19097],[-71.142416,-13.169841],[-71.147101,-13.147369],[-71.145201,-13.138109],[-71.151609,-13.122747],[-71.146765,-13.112657],[-71.16416,-13.110607],[-71.171957,-13.099019],[-71.15402,-13.067518],[-71.155142,-13.065243],[-71.172812,-13.062934],[-71.175772,-13.057139],[-71.171294,-13.045719],[-71.172354,-13.036494],[-71.168608,-13.027234],[-71.168982,-13.013251],[-71.171073,-13.008698],[-71.175474,-13.006723],[-71.178954,-12.997118],[-71.170599,-12.984271],[-71.163268,-12.980273],[-71.162008,-12.971609],[-71.164999,-12.965589],[-71.171713,-12.965363],[-71.177008,-12.971307],[-71.182669,-12.967582],[-71.189391,-12.967139],[-71.19203,-12.961167],[-71.204009,-12.965439],[-71.212988,-12.959894],[-71.221007,-12.95862],[-71.226775,-12.961773],[-71.230757,-12.972552],[-71.234457,-12.970124],[-71.240515,-12.972242],[-71.252089,-12.964756],[-71.273016,-12.961907],[-71.273108,-12.955193],[-71.285742,-12.951231],[-71.294043,-12.944968],[-71.297026,-12.94604],[-71.302954,-12.934336],[-71.307822,-12.934712],[-71.310202,-12.930161],[-71.315032,-12.931637],[-71.316054,-12.925379],[-71.320418,-12.924854],[-71.321219,-12.921733],[-71.326987,-12.918935],[-71.335585,-12.902827],[-71.359595,-12.882105],[-71.361349,-12.890894],[-71.375986,-12.902985],[-71.380825,-12.897825],[-71.387024,-12.896431],[-71.387533,-12.890562],[-71.398466,-12.883464],[-71.415641,-12.895805],[-71.419676,-12.891013],[-71.418272,-12.88379],[-71.424956,-12.884857],[-71.428603,-12.881476],[-71.424826,-12.873183],[-71.426352,-12.875786],[-71.436621,-12.876756],[-71.439864,-12.875266],[-71.439322,-12.871025],[-71.44248,-12.86771],[-71.445731,-12.868503],[-71.44934,-12.864797],[-71.451316,-12.85817],[-71.443976,-12.853278],[-71.446173,-12.841148],[-71.452994,-12.843307],[-71.457373,-12.840234],[-71.447821,-12.826871],[-71.461142,-12.824975],[-71.465567,-12.811006],[-71.474524,-12.807678],[-71.484602,-12.792981],[-71.491301,-12.791707],[-71.491797,-12.786902],[-71.500082,-12.777804],[-71.499289,-12.770463],[-71.503424,-12.756408],[-71.514792,-12.743929],[-71.517775,-12.747877],[-71.522582,-12.748708],[-71.548041,-12.735147],[-71.547758,-12.732083],[-71.553892,-12.726096],[-71.550353,-12.716282],[-71.554465,-12.708725],[-71.559691,-12.711609],[-71.564872,-12.706513],[-71.591833,-12.703069],[-71.596808,-12.699747],[-71.6406,-12.711077],[-71.662024,-12.729568],[-71.681411,-12.732828],[-71.694396,-12.738724],[-71.694563,-12.753705],[-71.699309,-12.762857],[-71.707098,-12.767505],[-71.708029,-12.7727],[-71.722891,-12.785282],[-71.748084,-12.7955],[-71.753402,-12.794401],[-71.759543,-12.788977],[-71.765784,-12.767283],[-71.798834,-12.765411],[-71.80506,-12.752952],[-71.813674,-12.743475],[-71.820387,-12.740991],[-71.832137,-12.742424],[-71.857406,-12.735411],[-71.866698,-12.73609],[-71.881232,-12.730852],[-71.89585,-12.732668],[-71.910483,-12.72519],[-71.921584,-12.724407],[-71.924727,-12.720253],[-71.924163,-12.714684],[-71.915869,-12.707588],[-71.914725,-12.701587],[-71.902755,-12.698576],[-71.90557,-12.694418],[-71.91104,-12.694121],[-71.917479,-12.697438],[-71.923285,-12.694046],[-71.926383,-12.695618],[-71.930121,-12.689917],[-71.933844,-12.693329],[-71.937362,-12.689892],[-71.950118,-12.689037],[-71.962042,-12.692389],[-71.967559,-12.691458],[-71.976226,-12.681225],[-71.970588,-12.670838],[-71.970588,-12.664606],[-71.960517,-12.648867],[-71.967421,-12.639246],[-71.979544,-12.636927],[-71.98416,-12.63297],[-71.981238,-12.627725],[-71.963408,-12.62373],[-71.963706,-12.617682],[-71.979316,-12.608584],[-71.982146,-12.60289],[-71.980948,-12.584831],[-71.983382,-12.579277],[-72.005973,-12.568494],[-72.01303,-12.556028],[-72.013808,-12.547438],[-72.025694,-12.544725],[-72.025908,-12.538694],[-72.037429,-12.534305],[-72.034735,-12.52901],[-72.051673,-12.52375],[-72.061179,-12.509123],[-72.079131,-12.509264],[-72.082991,-12.504591],[-72.082686,-12.498798],[-72.080222,-12.489016],[-72.068091,-12.472328],[-72.069762,-12.459394],[-72.062674,-12.449617],[-72.063262,-12.438297],[-72.052161,-12.43487],[-72.049765,-12.424005],[-72.022574,-12.416301],[-72.011603,-12.408224],[-72.002143,-12.406087],[-71.994353,-12.399371],[-71.979506,-12.399107],[-71.974967,-12.39679],[-71.965201,-12.366334],[-71.969351,-12.35016],[-71.965361,-12.344525],[-71.946021,-12.334952],[-71.944884,-12.328094],[-71.949202,-12.324837],[-71.967162,-12.321731],[-71.980246,-12.313134],[-72.01979,-12.295342],[-72.02806,-12.285171],[-72.035788,-12.26356],[-72.039931,-12.258728],[-72.064566,-12.251712],[-72.074279,-12.243371],[-72.089095,-12.248018],[-72.09442,-12.240712],[-72.10424,-12.235758],[-72.099501,-12.201754],[-72.09027,-12.194684],[-72.08776,-12.18959],[-72.096816,-12.160808],[-72.080618,-12.144135],[-72.089583,-12.126896],[-72.087432,-12.109169],[-72.092192,-12.09651],[-72.090544,-12.091453],[-72.082862,-12.08477],[-72.083769,-12.08094],[-72.110534,-12.076198],[-72.127112,-12.068863],[-72.14791,-12.066295],[-72.180746,-12.055473],[-72.222838,-12.057938],[-72.256941,-12.044427],[-72.264823,-12.030421],[-72.266433,-12.02208],[-72.259894,-12.008185],[-72.251227,-11.998886],[-72.252738,-11.990933],[-72.268859,-11.98352],[-72.271445,-11.97564],[-72.268409,-11.966432],[-72.270301,-11.960615],[-72.298003,-11.928197],[-72.306151,-11.908039],[-72.314765,-11.900306],[-72.324744,-11.882531],[-72.332885,-11.874703],[-72.338149,-11.854543],[-72.347624,-11.845154],[-72.371299,-11.832293],[-72.37638,-11.82663],[-72.380294,-11.81605],[-72.380233,-11.799164],[-72.368453,-11.775565],[-72.381102,-11.75332],[-72.402564,-11.736558],[-72.40837,-11.723573],[-72.407317,-11.709658],[-72.39746,-11.689683],[-72.393027,-11.673055],[-72.371825,-11.655334],[-72.37107,-11.648632],[-72.375891,-11.644195],[-72.360075,-11.635928],[-72.354568,-11.623229],[-72.319274,-11.607129],[-72.291762,-11.579769],[-72.291388,-11.571788],[-72.297866,-11.563022],[-72.299529,-11.552955],[-72.284293,-11.5287],[-72.285888,-11.509517],[-72.277854,-11.496749],[-72.275824,-11.479809],[-72.266868,-11.461738],[-72.272788,-11.443942],[-72.273826,-11.429569],[-72.25241,-11.387279],[-72.234732,-11.381539],[-72.226729,-11.371382],[-72.224929,-11.365493],[-72.227019,-11.350887],[-72.224028,-11.342864],[-72.220504,-11.339885],[-72.21131,-11.345562],[-72.205893,-11.343153],[-72.213294,-11.320964],[-72.222006,-11.310404],[-72.223464,-11.299974],[-72.219824,-11.289587],[-72.208846,-11.277116],[-72.205588,-11.268964],[-72.206725,-11.262706],[-72.215453,-11.248893],[-72.207816,-11.231242],[-72.207595,-11.206839],[-72.196616,-11.191993],[-72.182257,-11.187359],[-72.177863,-11.182033],[-72.185752,-11.164745],[-72.184355,-11.155138],[-72.17243,-11.145739],[-72.141058,-11.135116],[-72.115782,-11.122074],[-72.105765,-11.113839],[-72.097235,-11.100333],[-72.097975,-11.090377],[-72.106085,-11.086101],[-72.139474,-11.087052],[-72.157894,-11.083559],[-72.17605,-11.088228],[-72.182702,-11.085725],[-72.183967,-11.072692],[-72.175958,-11.047079],[-72.174432,-11.032357],[-72.175324,-11.024832],[-72.181121,-11.014542],[-72.180947,-11.008506],[-72.158791,-11.00773],[-72.154297,-11.00309],[-72.152864,-10.994214],[-72.139901,-10.988736],[-72.130287,-10.990334],[-72.102303,-11.002191],[-72.054916,-11.011563],[-72.040847,-10.999873],[-72.02983,-10.997932],[-72.011642,-10.989336],[-71.996742,-10.991122],[-71.986564,-10.995501],[-71.979697,-10.991133],[-71.968133,-10.996609],[-71.959549,-10.990716],[-71.955863,-10.993975],[-71.949639,-10.990969],[-71.944588,-10.997448],[-71.925346,-10.995185],[-71.916556,-10.999251],[-71.89328,-10.995943],[-71.877357,-10.999925],[-71.869605,-10.999538],[-71.871406,-10.993704],[-71.867668,-10.991905],[-71.850486,-10.994211],[-71.847519,-10.99148],[-71.84401,-10.997178],[-71.833656,-11.000493],[-71.826187,-10.997498],[-71.813324,-10.997156],[-71.808174,-10.993679],[-71.797791,-10.993777],[-71.79467,-10.991053],[-71.786156,-10.992056],[-71.780845,-10.987809],[-71.770043,-10.992815],[-71.763055,-10.991495],[-71.751144,-10.993751],[-71.738709,-10.990187],[-71.729973,-10.983835],[-71.717545,-10.997725],[-71.713707,-10.984906],[-71.702445,-10.973659],[-71.693664,-10.979108],[-71.681817,-10.97124],[-71.67891,-10.975407],[-71.672562,-10.975925],[-71.662857,-10.983051],[-71.651336,-10.977019],[-71.628387,-10.975845],[-71.609123,-10.970502],[-71.594262,-10.972774],[-71.571097,-10.964848],[-71.558853,-10.9648],[-71.532707,-10.951846],[-71.526588,-10.962005],[-71.510193,-10.965655],[-71.494117,-10.961859],[-71.490731,-10.964646],[-71.485916,-10.96376],[-71.48011,-10.956452],[-71.472176,-10.953607],[-71.449723,-10.959151],[-71.430299,-10.955629],[-71.412941,-10.95807],[-71.399398,-10.952963],[-71.393455,-10.947332],[-71.383088,-10.950179],[-71.379851,-10.953418],[-71.370498,-10.947511],[-71.357338,-10.951597],[-71.351066,-10.943677],[-71.352279,-10.939991],[-71.348465,-10.928364],[-71.329719,-10.911485],[-71.319,-10.910183],[-71.308822,-10.877907],[-71.291405,-10.87267],[-71.274955,-10.850717],[-71.271279,-10.836483],[-71.272232,-10.819454],[-71.258484,-10.785051],[-71.250557,-10.783421],[-71.24524,-10.77656],[-71.238738,-10.779062],[-71.234078,-10.778031],[-71.228432,-10.769162],[-71.228539,-10.76196],[-71.218902,-10.759568],[-71.218971,-10.748079],[-71.224746,-10.731624],[-71.223305,-10.725044],[-71.215781,-10.71405],[-71.228791,-10.690957],[-71.229668,-10.68344],[-71.22776,-10.677623],[-71.212647,-10.666997],[-71.209596,-10.65214],[-71.220803,-10.636733],[-71.210906,-10.619167],[-71.204674,-10.592529],[-71.196213,-10.579863],[-71.184386,-10.574116],[-71.173859,-10.575107],[-71.165595,-10.568563],[-71.16507,-10.559982],[-71.167365,-10.555985],[-71.164199,-10.545883],[-71.166588,-10.533141],[-71.164094,-10.53025],[-71.155418,-10.531065],[-71.142198,-10.523793],[-71.132797,-10.509446],[-71.126412,-10.504882],[-71.119896,-10.504162],[-71.116471,-10.501124],[-71.097733,-10.503538],[-71.078506,-10.50137],[-71.06392,-10.494691],[-71.054787,-10.493522],[-71.047639,-10.488515],[-71.039275,-10.488113],[-71.025918,-10.479617],[-71.021807,-10.46897],[-71.013332,-10.463968],[-71.007233,-10.44767],[-71.001258,-10.443989],[-71.001102,-10.433857],[-70.995532,-10.426466],[-70.993235,-10.4153],[-70.979071,-10.404534],[-70.973085,-10.396574],[-70.957449,-10.387448],[-70.95715,-10.379208],[-70.970135,-10.346649],[-70.969161,-10.335801],[-70.956387,-10.335797],[-70.939791,-10.330838],[-70.900332,-10.337842],[-70.894993,-10.336244],[-70.874892,-10.305769],[-70.873993,-10.300696],[-70.879553,-10.295006],[-70.882213,-10.287425],[-70.882619,-10.268176],[-70.878542,-10.260447],[-70.863975,-10.253359],[-70.851858,-10.25075],[-70.810533,-10.25394],[-70.790515,-10.244128],[-70.78038,-10.234893],[-70.773388,-10.216501],[-70.759068,-10.211095],[-70.755121,-10.195558],[-70.747879,-10.189603],[-70.736536,-10.186858],[-70.729283,-10.178735],[-70.716897,-10.173444],[-70.713893,-10.165298],[-70.704854,-10.159861],[-70.708467,-10.137269],[-70.700081,-10.126695],[-70.697483,-10.117188],[-70.690343,-10.11186],[-70.683287,-10.112738],[-70.68127,-10.102491],[-70.67112,-10.100176],[-70.663061,-10.091696],[-70.664164,-10.089429],[-70.66005,-10.084137],[-70.6499,-10.079475],[-70.651916,-10.073614],[-70.645086,-10.067813],[-70.656904,-10.0597],[-70.659681,-10.051385],[-70.652059,-10.04006],[-70.65296,-10.034324],[-70.657996,-10.029943],[-70.672481,-10.025021],[-70.671207,-10.019111],[-70.666876,-10.015352],[-70.666251,-10.006561],[-70.654451,-10.001278],[-70.660101,-9.987278],[-70.666278,-9.979276],[-70.667305,-9.969244],[-70.664798,-9.965394],[-70.656831,-9.963707],[-70.648155,-9.952984],[-70.647199,-9.944113],[-70.651786,-9.933077],[-70.649184,-9.926597],[-70.641692,-9.920224],[-70.643455,-9.908051],[-70.633303,-9.900047],[-70.640288,-9.885093],[-70.62103,-9.877657],[-70.613793,-9.867156],[-70.613754,-11.000168],[-70.527832,-10.934279],[-70.523797,-10.934147],[-70.519463,-10.935247],[-70.515649,-10.947519],[-70.505127,-10.950628],[-70.494034,-10.963243],[-70.482117,-10.967891],[-70.470449,-10.988404],[-70.466479,-10.988543],[-70.453283,-10.997327],[-70.437807,-11.02723],[-70.441462,-11.03449],[-70.438046,-11.039912],[-70.421721,-11.038772],[-70.411359,-11.043106],[-70.408408,-11.04811],[-70.400461,-11.045934],[-70.388157,-11.046855],[-70.381052,-11.052102],[-70.380163,-11.057922],[-70.374361,-11.061458],[-70.372248,-11.058829],[-70.36342,-11.062003],[-70.354681,-11.059506],[-70.350103,-11.066369],[-70.345218,-11.067691],[-70.32695,-11.065849],[-70.308676,-11.070776],[-70.300087,-11.066423],[-70.294111,-11.066663],[-70.285811,-11.058032],[-70.281011,-11.056605],[-70.271576,-11.059783],[-70.266281,-11.057645],[-70.26432,-11.05189],[-70.258461,-11.053871],[-70.255898,-11.050946],[-70.241131,-11.047486],[-70.231617,-11.052916],[-70.22727,-11.05017],[-70.217827,-11.05076],[-70.214142,-11.053532],[-70.211675,-11.050473],[-70.198125,-11.054801],[-70.190144,-11.049617],[-70.189431,-11.045189],[-70.17858,-11.044123],[-70.17606,-11.040198],[-70.171831,-11.043132],[-70.164645,-11.040033],[-70.157981,-11.042667],[-70.158309,-11.037093],[-70.155311,-11.032997],[-70.140181,-11.02978],[-70.139257,-11.022789],[-70.130657,-11.02357],[-70.12734,-11.016324],[-70.121239,-11.011268],[-70.114078,-11.010314],[-70.111148,-11.005607],[-70.106856,-11.007467],[-70.108076,-10.995102],[-70.098748,-10.992788],[-70.094669,-10.996165],[-70.093235,-10.98639],[-70.090368,-10.985875],[-70.08552,-10.990249],[-70.081443,-10.984739],[-70.08049,-10.992078],[-70.077975,-10.989451],[-70.065528,-10.99462],[-70.063123,-10.991769],[-70.064276,-10.987462],[-70.056628,-10.988112],[-70.049429,-10.984769],[-70.04648,-10.97971],[-70.037312,-10.979749],[-70.037334,-10.971332],[-70.02737,-10.977874],[-70.025679,-10.971547],[-70.019675,-10.969196],[-70.014916,-10.970487],[-70.007542,-10.962174],[-69.998136,-10.964282],[-69.994436,-10.950018],[-69.99108,-10.950486],[-69.989549,-10.954128],[-69.983493,-10.954876],[-69.982348,-10.942961],[-69.978711,-10.947939],[-69.974588,-10.949124],[-69.963115,-10.939454],[-69.957719,-10.939887],[-69.961898,-10.935397],[-69.954737,-10.936414],[-69.952787,-10.933435],[-69.954099,-10.928212],[-69.947214,-10.924989],[-69.940921,-10.926543],[-69.932716,-10.921685],[-69.923228,-10.925159],[-69.92423,-10.931023],[-69.922194,-10.933125],[-69.917284,-10.932557],[-69.916915,-10.925495],[-69.900818,-10.920226],[-69.877695,-10.924956],[-69.873264,-10.931018],[-69.86279,-10.926481],[-69.858198,-10.934755],[-69.85136,-10.924152],[-69.842008,-10.925652],[-69.839929,-10.930131],[-69.832737,-10.928279],[-69.831411,-10.934104],[-69.813095,-10.93],[-69.811329,-10.925934],[-69.800103,-10.927157],[-69.79381,-10.934636],[-69.787886,-10.929129],[-69.780302,-10.935648],[-69.774847,-10.93487],[-69.769709,-10.929944],[-69.767948,-10.933787],[-69.772076,-10.93575],[-69.773796,-10.940059],[-69.765222,-10.942533],[-69.760088,-10.939697],[-69.746801,-10.956008],[-69.746306,-10.962053],[-69.7393,-10.965878],[-69.741406,-10.972608],[-69.73952,-10.975322],[-69.73051,-10.972383],[-69.722343,-10.965746],[-69.719685,-10.96715],[-69.71618,-10.977016],[-69.700382,-10.966364],[-69.698151,-10.973387],[-69.690902,-10.964532],[-69.686421,-10.966021],[-69.676131,-10.960346],[-69.668889,-10.962741],[-69.659771,-10.953268],[-69.633551,-10.957895],[-69.618713,-10.950878],[-69.609128,-10.958688],[-69.611732,-10.95034],[-69.608445,-10.945914],[-69.59609,-10.941975],[-69.591132,-10.947831],[-69.585582,-10.945508],[-69.580852,-10.947441],[-69.580839,-10.94437],[-69.587513,-10.943741],[-69.587496,-10.940841],[-69.574739,-10.942865],[-69.572162,-10.94599],[-69.574218,-10.950592],[-69.568496,-10.948275],[-69.569936,-10.953524],[-69.563299,-10.959647],[-69.562196,-10.968084],[-69.228332,-11.49982],[-69.103447,-11.681349],[-68.956845,-11.937021],[-68.651489,-12.502783],[-68.65345,-12.510814],[-68.660444,-12.518947],[-68.655822,-12.524296],[-68.655616,-12.535127],[-68.661147,-12.53623],[-68.663686,-12.525166],[-68.682786,-12.523603],[-68.682108,-12.527373],[-68.674709,-12.531389],[-68.673908,-12.55182],[-68.676623,-12.555076],[-68.691244,-12.557364],[-68.692478,-12.564624],[-68.699878,-12.573504],[-68.692694,-12.581572],[-68.692928,-12.585508],[-68.697502,-12.588952],[-68.701094,-12.579702],[-68.702943,-12.585798],[-68.711431,-12.592609],[-68.714531,-12.605345],[-68.723254,-12.603194],[-68.732202,-12.610223],[-68.73467,-12.625516],[-68.741478,-12.634113],[-68.733246,-12.644432],[-68.731115,-12.652234],[-68.737705,-12.658082],[-68.734808,-12.667781],[-68.729344,-12.668066],[-68.726954,-12.674799],[-68.725417,-12.668863],[-68.720758,-12.667629],[-68.717874,-12.677894],[-68.712239,-12.68089],[-68.721626,-12.68855],[-68.728708,-12.689042],[-68.736022,-12.693586],[-68.732243,-12.696914],[-68.728749,-12.691076],[-68.726371,-12.691199],[-68.725765,-12.698119],[-68.742568,-12.707403],[-68.743087,-12.710752],[-68.739925,-12.71342],[-68.735174,-12.7098],[-68.72862,-12.713422],[-68.741085,-12.718206],[-68.741569,-12.724207],[-68.746425,-12.730348],[-68.752446,-12.731228],[-68.767604,-12.74283],[-68.771341,-12.738196],[-68.777696,-12.737789],[-68.780522,-12.73289],[-68.790729,-12.760088],[-68.802456,-12.755255],[-68.805331,-12.757005],[-68.803264,-12.763423],[-68.808238,-12.765403],[-68.804611,-12.770453],[-68.809333,-12.776645],[-68.805008,-12.78436],[-68.811102,-12.783595],[-68.818641,-12.790851],[-68.81663,-12.798009],[-68.810514,-12.800285],[-68.80806,-12.809591],[-68.815716,-12.804662],[-68.818956,-12.806277],[-68.824263,-12.804513],[-68.825694,-12.813074],[-68.83392,-12.810047],[-68.834339,-12.818153],[-68.839702,-12.824],[-68.829522,-12.82878],[-68.831115,-12.8313],[-68.837081,-12.828427],[-68.839147,-12.830104],[-68.8346,-12.833955],[-68.831817,-12.843748],[-68.841944,-12.843096],[-68.834382,-12.857589],[-68.835994,-12.859346],[-68.844687,-12.857625],[-68.847425,-12.865012],[-68.851172,-12.866846],[-68.857554,-12.858108],[-68.859864,-12.865188],[-68.871058,-12.87012],[-68.870673,-12.872324],[-68.865566,-12.871997],[-68.864366,-12.874919],[-68.873085,-12.889446],[-68.865228,-12.893867],[-68.866515,-12.896587],[-68.873055,-12.898684],[-68.86744,-12.903661],[-68.875562,-12.919236],[-68.862981,-12.922897],[-68.86022,-12.926287],[-68.865116,-12.92794],[-68.8654,-12.932292],[-68.874142,-12.935692],[-68.87491,-12.938976],[-68.859145,-12.947185],[-68.862692,-12.949239],[-68.873583,-12.943937],[-68.876136,-12.954019],[-68.883791,-12.954667],[-68.877558,-12.956949],[-68.874113,-12.965252],[-68.875549,-12.980004],[-68.87003,-12.980773],[-68.872657,-12.974744],[-68.866454,-12.970235],[-68.861871,-12.979185],[-68.864868,-12.985679],[-68.878503,-12.986928],[-68.877681,-12.989941],[-68.869852,-12.987992],[-68.86626,-12.994636],[-68.866548,-12.998133],[-68.872444,-13.001368],[-68.870419,-13.005422],[-68.964013,-13.046325],[-69.229992,-13.173978],[-69.649583,-13.344556],[-69.654949,-13.372438],[-69.661646,-13.37053],[-69.667922,-13.372806],[-69.674553,-13.368571],[-69.693911,-13.363472],[-69.711852,-13.372431],[-69.709887,-13.383402],[-69.71532,-13.388155],[-69.719562,-13.397817],[-69.781419,-13.394663],[-69.79227,-13.382698],[-69.795009,-13.372701],[-69.794257,-13.362905],[-69.800022,-13.358049],[-69.806296,-13.35957],[-69.810983,-13.357211],[-69.814617,-13.360315],[-69.8228,-13.35845],[-69.828654,-13.353903],[-69.839658,-13.340951],[-69.84187,-13.332948],[-69.83774,-13.328425],[-69.849663,-13.319344],[-69.853792,-13.331403],[-69.881333,-13.316822],[-69.884298,-13.311076],[-69.899196,-13.312319],[-69.912255,-13.299281],[-69.915976,-13.304758],[-69.926377,-13.30002],[-69.947763,-13.302817],[-69.954655,-13.296033],[-69.964029,-13.296661],[-69.982363,-13.300785],[-69.993109,-13.310599],[-70.003566,-13.30871],[-70.016199,-13.299574],[-70.02389,-13.297852],[-70.042295,-13.301715],[-70.052405,-13.299143],[-70.06568,-13.288949],[-70.067433,-13.277406],[-70.07582,-13.273461],[-70.081451,-13.273409],[-70.097712,-13.282149],[-70.106422,-13.291995],[-70.123954,-13.287735],[-70.127821,-13.29079],[-70.131333,-13.290166],[-70.130316,-13.292243],[-70.133016,-13.294479],[-70.14947,-13.281773],[-70.155811,-13.281289],[-70.159032,-13.273446],[-70.171378,-13.264956],[-70.181177,-13.265407],[-70.18418,-13.270894],[-70.191763,-13.271852],[-70.201216,-13.267964],[-70.205854,-13.261845],[-70.211343,-13.263608],[-70.218158,-13.259798],[-70.221578,-13.253817],[-70.225145,-13.263609],[-70.23196,-13.259798],[-70.233417,-13.253628],[-70.238629,-13.254067],[-70.236707,-13.248774],[-70.246886,-13.255017],[-70.255207,-13.254648],[-70.276521,-13.242216],[-70.272163,-13.23687],[-70.273887,-13.230168],[-70.279059,-13.236106],[-70.282064,-13.228602],[-70.283383,-13.234958],[-70.292979,-13.23312],[-70.296207,-13.229525],[-70.302784,-13.232341],[-70.299464,-13.218706],[-70.303523,-13.218752],[-70.311363,-13.230111],[-70.315534,-13.225848],[-70.314294,-13.221613],[-70.322681,-13.221503],[-70.324603,-13.217351],[-70.329583,-13.231242],[-70.333207,-13.229153],[-70.332823,-13.220622],[-70.345104,-13.224451],[-70.355617,-13.22287],[-70.360892,-13.212099],[-70.351958,-13.204161],[-70.352465,-13.202053],[-70.358627,-13.204489],[-70.366106,-13.203723],[-70.367118,-13.199145],[-70.375413,-13.19881],[-70.384801,-13.19513]],[[-70.928055,-12.5127],[-70.928498,-12.512525],[-70.928282,-12.512617],[-70.928055,-12.5127]]]},"properties":{"capa":"DISTRITOS_MDD","distritos":11}}]}